{
  "type": "FeatureCollection",
  "features": [
    {
      "type": "Feature",
      "properties": {
        "norad_id": 66372,
        "name": "STARLINK-35821",
        "group": "last-30-days",
        "lat": 34.95047320502025,
        "lon": 103.78175636051962,
        "alt_km": 338.9419761249628,
        "timestamp": "2025-12-04T13:51:59.225742+00:00",
        "meta_object_name": "STARLINK-35821",
        "meta_object_id": "2025-254AA",
        "meta_epoch": "2025-12-04T05:40:58.806336",
        "meta_mean_motion": 15.74475506,
        "meta_eccentricity": 0.00025221,
        "meta_inclination": 53.1567,
        "meta_ra_of_asc_node": 317.0811,
        "meta_arg_of_pericenter": 115.3607,
        "meta_mean_anomaly": 244.7675,
        "meta_ephemeris_type": 0,
        "meta_classification_type": "U",
        "meta_norad_cat_id": 66372,
        "meta_element_set_no": 999,
        "meta_rev_at_epoch": 434,
        "meta_bstar": 0.0040077055,
        "meta_mean_motion_dot": 0.00641023,
        "meta_mean_motion_ddot": 0,
        "tle_line1": "1 66372U 25254AA  25338.23679174  .00641023  00000+0  40077-2 0  9997",
        "tle_line2": "2 66372  53.1567 317.0811 0002522 115.3607 244.7675 15.74475506  4348"
      },
      "geometry": {
        "type": "Point",
        "coordinates": [
          103.78175636051962,
          34.95047320502025
        ]
      }
    },
    {
      "type": "Feature",
      "properties": {
        "norad_id": 66373,
        "name": "STARLINK-35809",
        "group": "last-30-days",
        "lat": 32.37494758435678,
        "lon": 106.99284550982001,
        "alt_km": 341.05417085961744,
        "timestamp": "2025-12-04T13:51:59.225752+00:00",
        "meta_object_name": "STARLINK-35809",
        "meta_object_id": "2025-254AB",
        "meta_epoch": "2025-12-04T02:37:11.293536",
        "meta_mean_motion": 15.74358169,
        "meta_eccentricity": 0.00010531,
        "meta_inclination": 53.1566,
        "meta_ra_of_asc_node": 317.7054,
        "meta_arg_of_pericenter": 75.9118,
        "meta_mean_anomaly": 284.2019,
        "meta_ephemeris_type": 0,
        "meta_classification_type": "U",
        "meta_norad_cat_id": 66373,
        "meta_element_set_no": 999,
        "meta_rev_at_epoch": 432,
        "meta_bstar": 0.0026661189,
        "meta_mean_motion_dot": 0.00412582,
        "meta_mean_motion_ddot": 0,
        "tle_line1": "1 66373U 25254AB  25338.10915849  .00412582  00000+0  26661-2 0  9995",
        "tle_line2": "2 66373  53.1566 317.7054 0001053  75.9118 284.2019 15.74358169  4324"
      },
      "geometry": {
        "type": "Point",
        "coordinates": [
          106.99284550982001,
          32.37494758435678
        ]
      }
    },
    {
      "type": "Feature",
      "properties": {
        "norad_id": 66374,
        "name": "STARLINK-35831",
        "group": "last-30-days",
        "lat": 31.19456378764268,
        "lon": 108.37334034871274,
        "alt_km": 342.77117119374816,
        "timestamp": "2025-12-04T13:51:59.225762+00:00",
        "meta_object_name": "STARLINK-35831",
        "meta_object_id": "2025-254AC",
        "meta_epoch": "2025-12-04T05:39:32.506560",
        "meta_mean_motion": 15.74341834,
        "meta_eccentricity": 0.00020841,
        "meta_inclination": 53.1569,
        "meta_ra_of_asc_node": 317.0728,
        "meta_arg_of_pericenter": 18.8309,
        "meta_mean_anomaly": 341.2788,
        "meta_ephemeris_type": 0,
        "meta_classification_type": "U",
        "meta_norad_cat_id": 66374,
        "meta_element_set_no": 999,
        "meta_rev_at_epoch": 434,
        "meta_bstar": 0.0021379689,
        "meta_mean_motion_dot": 0.00327095,
        "meta_mean_motion_ddot": 0,
        "tle_line1": "1 66374U 25254AC  25338.23579290  .00327095  00000+0  21380-2 0  9993",
        "tle_line2": "2 66374  53.1569 317.0728 0002084  18.8309 341.2788 15.74341834  4342"
      },
      "geometry": {
        "type": "Point",
        "coordinates": [
          108.37334034871274,
          31.19456378764268
        ]
      }
    },
    {
      "type": "Feature",
      "properties": {
        "norad_id": 66375,
        "name": "STARLINK-35826",
        "group": "last-30-days",
        "lat": 29.76037963139655,
        "lon": 109.98275106159683,
        "alt_km": 342.0226547321936,
        "timestamp": "2025-12-04T13:51:59.225773+00:00",
        "meta_object_name": "STARLINK-35826",
        "meta_object_id": "2025-254AD",
        "meta_epoch": "2025-12-04T05:39:03.248928",
        "meta_mean_motion": 15.7437883,
        "meta_eccentricity": 0.00012314,
        "meta_inclination": 53.1565,
        "meta_ra_of_asc_node": 317.0707,
        "meta_arg_of_pericenter": 53.2492,
        "meta_mean_anomaly": 306.8641,
        "meta_ephemeris_type": 0,
        "meta_classification_type": "U",
        "meta_norad_cat_id": 66375,
        "meta_element_set_no": 999,
        "meta_rev_at_epoch": 434,
        "meta_bstar": 0.0026420388,
        "meta_mean_motion_dot": 0.00409034,
        "meta_mean_motion_ddot": 0,
        "tle_line1": "1 66375U 25254AD  25338.23545427  .00409034  00000+0  26420-2 0  9993",
        "tle_line2": "2 66375  53.1565 317.0707 0001231  53.2492 306.8641 15.74378830  4346"
      },
      "geometry": {
        "type": "Point",
        "coordinates": [
          109.98275106159683,
          29.76037963139655
        ]
      }
    },
    {
      "type": "Feature",
      "properties": {
        "norad_id": 66376,
        "name": "SHIYAN-32 01",
        "group": "last-30-days",
        "lat": -47.47545904985511,
        "lon": 161.55354607727088,
        "alt_km": 442.83204594827566,
        "timestamp": "2025-12-04T13:51:59.225783+00:00",
        "meta_object_name": "SHIYAN-32 01",
        "meta_object_id": "2025-255A",
        "meta_epoch": "2025-12-04T07:56:11.971968",
        "meta_mean_motion": 15.4234976,
        "meta_eccentricity": 0.00134792,
        "meta_inclination": 52.9962,
        "meta_ra_of_asc_node": 218.0482,
        "meta_arg_of_pericenter": 16.1242,
        "meta_mean_anomaly": 344.0188,
        "meta_ephemeris_type": 0,
        "meta_classification_type": "U",
        "meta_norad_cat_id": 66376,
        "meta_element_set_no": 999,
        "meta_rev_at_epoch": 405,
        "meta_bstar": 0.00089204363,
        "meta_mean_motion_dot": 0.00038972,
        "meta_mean_motion_ddot": 0,
        "tle_line1": "1 66376U 25255A   25338.33069412  .00038972  00000+0  89204-3 0  9990",
        "tle_line2": "2 66376  52.9962 218.0482 0013479  16.1242 344.0188 15.42349760  4056"
      },
      "geometry": {
        "type": "Point",
        "coordinates": [
          161.55354607727088,
          -47.47545904985511
        ]
      }
    },
    {
      "type": "Feature",
      "properties": {
        "norad_id": 66377,
        "name": "CZ-11 DEB",
        "group": "last-30-days",
        "lat": 3.3139871019045017,
        "lon": -140.76417913334228,
        "alt_km": 426.3168989567848,
        "timestamp": "2025-12-04T13:51:59.225793+00:00",
        "meta_object_name": "CZ-11 DEB",
        "meta_object_id": "2025-255B",
        "meta_epoch": "2025-12-04T07:37:59.725632",
        "meta_mean_motion": 15.43662808,
        "meta_eccentricity": 0.00139159,
        "meta_inclination": 52.9957,
        "meta_ra_of_asc_node": 217.9692,
        "meta_arg_of_pericenter": 13.7634,
        "meta_mean_anomaly": 346.3747,
        "meta_ephemeris_type": 0,
        "meta_classification_type": "U",
        "meta_norad_cat_id": 66377,
        "meta_element_set_no": 999,
        "meta_rev_at_epoch": 391,
        "meta_bstar": 0.0016544022,
        "meta_mean_motion_dot": 0.00076318,
        "meta_mean_motion_ddot": 0,
        "tle_line1": "1 66377U 25255B   25338.31805238  .00076318  00000+0  16544-2 0  9995",
        "tle_line2": "2 66377  52.9957 217.9692 0013915  13.7634 346.3747 15.43662808  3917"
      },
      "geometry": {
        "type": "Point",
        "coordinates": [
          -140.76417913334228,
          3.3139871019045017
        ]
      }
    },
    {
      "type": "Feature",
      "properties": {
        "norad_id": 66378,
        "name": "SHIYAN-32 02",
        "group": "last-30-days",
        "lat": 27.326351790013828,
        "lon": -120.39002139101686,
        "alt_km": 422.4745890219074,
        "timestamp": "2025-12-04T13:51:59.225805+00:00",
        "meta_object_name": "SHIYAN-32 02",
        "meta_object_id": "2025-255C",
        "meta_epoch": "2025-12-04T07:30:09.019296",
        "meta_mean_motion": 15.44244956,
        "meta_eccentricity": 0.00123227,
        "meta_inclination": 52.9953,
        "meta_ra_of_asc_node": 217.9363,
        "meta_arg_of_pericenter": 12.2799,
        "meta_mean_anomaly": 347.8503,
        "meta_ephemeris_type": 0,
        "meta_classification_type": "U",
        "meta_norad_cat_id": 66378,
        "meta_element_set_no": 999,
        "meta_rev_at_epoch": 391,
        "meta_bstar": 0.0017300556,
        "meta_mean_motion_dot": 0.00081416,
        "meta_mean_motion_ddot": 0,
        "tle_line1": "1 66378U 25255C   25338.31260439  .00081416  00000+0  17301-2 0  9991",
        "tle_line2": "2 66378  52.9953 217.9363 0012322  12.2799 347.8503 15.44244956  3913"
      },
      "geometry": {
        "type": "Point",
        "coordinates": [
          -120.39002139101686,
          27.326351790013828
        ]
      }
    }
  ]
}